{
    "links": {
        "self": "http://www.neowsapp.com/rest/v1/neo/3699444?api_key=iIulBulltgU6a56xZRHN4H3l9WmuAYTsLGpBGhQ2"
    },
    "id": "3699444",
    "neo_reference_id": "3699444",
    "name": "(2014 WT362)",
    "designation": "2014 WT362",
    "nasa_jpl_url": "http://ssd.jpl.nasa.gov/sbdb.cgi?sstr=3699444",
    "absolute_magnitude_h": 24.3,
    "estimated_diameter": {
        "kilometers": {
            "estimated_diameter_min": 0.0366906138,
            "estimated_diameter_max": 0.0820427065
        },
        "meters": {
            "estimated_diameter_min": 36.6906137531,
            "estimated_diameter_max": 82.0427064882
        },
        "miles": {
            "estimated_diameter_min": 0.0227984834,
            "estimated_diameter_max": 0.0509789586
        },
        "feet": {
            "estimated_diameter_min": 120.3760332259,
            "estimated_diameter_max": 269.1689931548
        }
    },
    "is_potentially_hazardous_asteroid": false,
    "close_approach_data": [
        {
            "close_approach_date": "1900-07-16",
            "close_approach_date_full": "1900-Jul-16 07:52",
            "epoch_date_close_approach": -2192026080000,
            "relative_velocity": {
                "kilometers_per_second": "2.5855432595",
                "kilometers_per_hour": "9307.9557342847",
                "miles_per_hour": "5783.6017172282"
            },
            "miss_distance": {
                "astronomical": "1.8411493976",
                "lunar": "716.2071156664",
                "kilometers": "275432028.232743112",
                "miles": "171145526.2203224656"
            },
            "orbiting_body": "Juptr"
        },
        {
            "close_approach_date": "2014-11-25",
            "close_approach_date_full": "2014-Nov-25 14:31",
            "epoch_date_close_approach": 1416925860000,
            "relative_velocity": {
                "kilometers_per_second": "6.7012857923",
                "kilometers_per_hour": "24124.6288521307",
                "miles_per_hour": "14990.1061887031"
            },
            "miss_distance": {
                "astronomical": "0.0917160376",
                "lunar": "35.6775386264",
                "kilometers": "13720523.869799912",
                "miles": "8525538.1982343056"
            },
            "orbiting_body": "Earth"
        }
    ],
    "orbital_data": {
        "orbit_id": "6",
        "orbit_determination_date": "2019-07-18 07:27:15",
        "first_observation_date": "2014-11-25",
        "last_observation_date": "2014-12-16",
        "data_arc_in_days": 21,
        "observations_used": 18,
        "orbit_uncertainty": "7",
        "minimum_orbit_intersection": ".0762487",
        "jupiter_tisserand_invariant": "3.282",
        "epoch_osculation": "2459000.5",
        "eccentricity": ".5629305110730664",
        "semi_major_axis": "2.411764001398801",
        "inclination": "2.294147574804247",
        "ascending_node_longitude": "159.1217248776722",
        "orbital_period": "1368.045807803421",
        "perihelion_distance": "1.05410845950375",
        "perihelion_argument": "254.9062073712046",
        "aphelion_distance": "3.769419543293851",
        "perihelion_time": "2458349.081386018968",
        "mean_anomaly": "171.4202110013477",
        "mean_motion": ".2631490831275803",
        "equinox": "J2000",
        "orbit_class": {
            "orbit_class_type": "AMO",
            "orbit_class_description": "Near-Earth asteroid orbits similar to that of 1221 Amor",
            "orbit_class_range": "1.017 AU < q (perihelion) < 1.3 AU"
        }
    },
    "is_sentry_object": false
}